FLOCK 4BE-28            
1 60519U 24149BD  24283.17824653  .00029799  00000+0  13629-2 0  9994
2 60519  97.4345 357.9609 0006462 328.8510  31.2341 15.20467786  8108
IPERDRONE.0             
1 60520U 24149BE  24283.49359109  .00031018  00000+0  13848-2 0  9990
2 60520  97.4359 358.3076 0005919 319.9530  40.1269 15.21291621  8154
2024-149BF              
1 60521U 24149BF  24283.48638709  .00043690  00000+0  19276-2 0  9996
2 60521  97.4375 358.3312 0005679 323.5959  36.4890 15.21617713  8157
CONNECTA IOT-2          
1 60522U 24149BG  24283.18054838  .00018741  00000+0  87193-3 0  9992
2 60522  97.4402 357.9912 0006460 335.3919  24.7006 15.19976905  8108
PTD-R (TYVAK-0127)      
1 60523U 24149BH  24283.21497816  .00055511  00000+0  24147-2 0  9999
2 60523  97.4335 358.0497 0006606 317.5618  42.5107 15.22030879  8110
CONNECTA IOT-4          
1 60524U 24149BJ  24283.17959923  .00019363  00000+0  90073-3 0  9994
2 60524  97.4354 357.9654 0007197 329.6943  30.3875 15.19969589  8107
2024-149BK              
1 60525U 24149BK  24283.16333312  .00033835  00000+0  15241-2 0  9995
2 60525  97.4313 357.9584 0007790 320.1135  39.9527 15.20955067  8100
DEIMOS                  
1 60526U 24149BL  24283.49110856  .00033119  00000+0  14905-2 0  9999
2 60526  97.4378 358.3267 0007809 325.8416  34.2317 15.20990569  8156
CUAVA-2                 
1 60527U 24149BM  24283.49229628  .00013112  00000+0  59771-3 0  9990
2 60527  97.4332 358.2911 0007975 318.2694  41.7932 15.20751315  8150
ERNST                   
1 60528U 24149BN  24283.17453202  .00019981  00000+0  92409-3 0  9998
2 60528  97.4389 357.9916 0008055 330.8384  29.2400 15.20158520  8105
GAINDESAT-1A            
1 60529U 24149BP  24283.20141490  .00059521  00000+0  25467-2 0  9999
2 60529  97.4394 358.1143 0007709 319.9521  40.1146 15.22565617  8114
TORO                    
1 60530U 24149BQ  24283.43463849  .00011379  00000+0  11307-2 0  9998
2 60530  97.7421 357.9609 0001240 100.8077 259.3281 14.91861144  7988
HYPSO-2                 
1 60531U 24149BR  24283.43021901  .00016528  00000+0  16267-2 0  9999
2 60531  97.7419 357.9639 0001075 131.7148 228.4163 14.92153586  7988
LEMU NGE                
1 60532U 24149BS  24283.49442109  .00010384  00000+0  10249-2 0  9991
2 60532  97.7441 358.0517 0000820  88.7994 271.3319 14.92155719  7999
LEMUR-2-STELLA          
1 60533U 24149BT  24283.20558599  .00036131  00000+0  34241-2 0  9998
2 60533  97.7385 357.7825 0001008 211.4838 148.6322 14.93473419  7953
SATELIOT_2              
1 60534U 24149BU  24283.49475942  .00008080  00000+0  80114-3 0  9993
2 60534  97.7443 358.0494 0001369  75.6909 284.4461 14.92044258  8008
NIGHTJAR                
1 60535U 24149BV  24283.49045376  .00016124  00000+0  15796-2 0  9999
2 60535  97.7458 358.0694 0001414  61.7770 298.3592 14.92343950 50805
LEMUR-2-MARHISYAM       
1 60536U 24149BW  24283.20520929  .00034182  00000+0  32476-2 0  9999
2 60536  97.7363 357.7685 0000986 252.3759 107.7353 14.93387382  7959
SATELIOT_4              
1 60537U 24149BX  24283.48998836  .00010703  00000+0  10555-2 0  9993
2 60537  97.7347 357.9980 0000876 315.8373  44.2776 14.92179620  7998
2024-149BY              
1 60538U 24149BY  24282.93567005  .00018803  00000+0  18079-2 0  9991
2 60538  97.7434 357.5530 0001465   3.4919 356.6310 14.93054653  7425
ICEYE-X43               
1 60539U 24149BZ  24283.53314127  .00008752  00000+0  84688-3 0  9996
2 60539  97.7378 358.1156 0003078 337.1190  22.9892 14.92989313  8006
HAWK-10A                
1 60540U 24149CA  24283.20136216  .00008514  00000+0  83008-3 0  9994
2 60540  97.7496 357.8744 0003165 346.3747  13.7386 14.92697579  7954
UMBRA-09                
1 60541U 24149CB  24283.17609047  .00038352  00000+0  35523-2 0  9999
2 60541  97.7439 357.8468 0002828 342.5856  17.5266 14.94361304  7954
QPS-SAR-8 (AMATERU-IV)  
1 60542U 24149CC  24283.52335026  .00013536  00000+0  12893-2 0  9994
2 60542  97.7416 358.1539 0003497 348.8126  11.3015 14.93501477  8002
ARCTIC WEATHER SATELLITE
1 60543U 24149CD  24282.59548171  .00008256  00000+0  81637-3 0  9994
2 60543  97.7436 357.2247 0003870   8.1673 351.9608 14.92142698  7868
CAPELLA-15 (ACADIA-5)   
1 60544U 24149CE  24283.49653226  .00033922  00000+0  30842-2 0  9992
2 60544  97.7377 358.1610 0003709 328.0189  32.0806 14.95124001  8009
HAWK-10B                
1 60545U 24149CF  24283.20118797  .00008451  00000+0  82393-3 0  9999
2 60545  97.7422 357.8106 0005444 359.5602   0.5612 14.92696126  7951
ICEYE-X39               
1 60546U 24149CG  24283.18460740  .00010955  00000+0  10479-2 0  9992
2 60546  97.7392 357.8042 0004689 349.2936  10.8183 14.93382463  7957
UMBRA-10                
1 60547U 24149CH  24283.49834264  .00027774  00000+0  25513-2 0  9995
2 60547  97.7427 358.1884 0003708 344.9438  15.1672 14.94768099  8018
ICEYE-X33               
1 60548U 24149CJ  24283.17809643  .00021496  00000+0  20289-2 0  9994
2 60548  97.7425 357.8354 0004723 356.4393   3.6793 14.93752481  7956
