OBJECT_NAME,OBJECT_ID,EPOCH,MEAN_MOTION,ECCENTRICITY,INCLINATION,RA_OF_ASC_NODE,ARG_OF_PERICENTER,MEAN_ANOMALY,EPHEMERIS_TYPE,CLASSIFICATION_TYPE,NORAD_CAT_ID,ELEMENT_SET_NO,REV_AT_EPOCH,BSTAR,MEAN_MOTION_DOT,MEAN_MOTION_DDOT
FLOCK 4BE-28,2024-149BD,2024-10-09T04:16:40.500192,15.20467786,0.0006462,97.4345,357.9609,328.8510,31.2341,0,U,60519,999,810,1.3629E-03,2.9799E-04,0
IPERDRONE.0,2024-149BE,2024-10-09T11:50:46.270176,15.21291621,0.0005919,97.4359,358.3076,319.9530,40.1269,0,U,60520,999,815,1.3848E-03,3.1018E-04,0
2024-149BF,2024-149BF,2024-10-09T11:40:23.844576,15.21617713,0.0005679,97.4375,358.3312,323.5959,36.4890,0,U,60521,999,815,1.9276E-03,4.369E-04,0
CONNECTA IOT-2,2024-149BG,2024-10-09T04:19:59.380032,15.19976905,0.000646,97.4402,357.9912,335.3919,24.7006,0,U,60522,999,810,8.7193E-04,1.8741E-04,0
PTD-R (TYVAK-0127),2024-149BH,2024-10-09T05:09:34.113024,15.22030879,0.0006606,97.4335,358.0497,317.5618,42.5107,0,U,60523,999,811,2.4147E-03,5.5511E-04,0
CONNECTA IOT-4,2024-149BJ,2024-10-09T04:18:37.373472,15.19969589,0.0007197,97.4354,357.9654,329.6943,30.3875,0,U,60524,999,810,9.0073E-04,1.9363E-04,0
2024-149BK,2024-149BK,2024-10-09T03:55:11.981568,15.20955067,0.000779,97.4313,357.9584,320.1135,39.9527,0,U,60525,999,810,1.5241E-03,3.3835E-04,0
DEIMOS,2024-149BL,2024-10-09T11:47:11.779584,15.20990569,0.0007809,97.4378,358.3267,325.8416,34.2317,0,U,60526,999,815,1.4905E-03,3.3119E-04,0
CUAVA-2,2024-149BM,2024-10-09T11:48:54.398592,15.20751315,0.0007975,97.4332,358.2911,318.2694,41.7932,0,U,60527,999,815,5.9771E-04,1.3112E-04,0
ERNST,2024-149BN,2024-10-09T04:11:19.566528,15.20158520,0.0008055,97.4389,357.9916,330.8384,29.2400,0,U,60528,999,810,9.2409E-04,1.9981E-04,0
GAINDESAT-1A,2024-149BP,2024-10-09T04:50:02.247360,15.22565617,0.0007709,97.4394,358.1143,319.9521,40.1146,0,U,60529,999,811,2.5467E-03,5.9521E-04,0
TORO,2024-149BQ,2024-10-09T10:25:52.765536,14.91861144,0.000124,97.7421,357.9609,100.8077,259.3281,0,U,60530,999,798,1.1307E-03,1.1379E-04,0
HYPSO-2,2024-149BR,2024-10-09T10:19:30.922464,14.92153586,0.0001075,97.7419,357.9639,131.7148,228.4163,0,U,60531,999,798,1.6267E-03,1.6528E-04,0
LEMU NGE,2024-149BS,2024-10-09T11:51:57.982176,14.92155719,0.000082,97.7441,358.0517,88.7994,271.3319,0,U,60532,999,799,1.0249E-03,1.0384E-04,0
LEMUR-2-STELLA,2024-149BT,2024-10-09T04:56:02.629536,14.93473419,0.0001008,97.7385,357.7825,211.4838,148.6322,0,U,60533,999,795,3.4241E-03,3.6131E-04,0
SATELIOT_2,2024-149BU,2024-10-09T11:52:27.213888,14.92044258,0.0001369,97.7443,358.0494,75.6909,284.4461,0,U,60534,999,800,8.0114E-04,8.08E-05,0
NIGHTJAR,2024-149BV,2024-10-09T11:46:15.204864,14.92343950,0.0001414,97.7458,358.0694,61.7770,298.3592,0,U,60535,999,5080,1.5796E-03,1.6124E-04,0
LEMUR-2-MARHISYAM,2024-149BW,2024-10-09T04:55:30.082656,14.93387382,0.0000986,97.7363,357.7685,252.3759,107.7353,0,U,60536,999,795,3.2476E-03,3.4182E-04,0
SATELIOT_4,2024-149BX,2024-10-09T11:45:34.994304,14.92179620,0.0000876,97.7347,357.9980,315.8373,44.2776,0,U,60537,999,799,1.0555E-03,1.0703E-04,0
2024-149BY,2024-149BY,2024-10-08T22:27:21.892320,14.93054653,0.0001465,97.7434,357.5530,3.4919,356.6310,0,U,60538,999,742,1.8079E-03,1.8803E-04,0
ICEYE-X43,2024-149BZ,2024-10-09T12:47:43.405728,14.92989313,0.0003078,97.7378,358.1156,337.1190,22.9892,0,U,60539,999,800,8.4688E-04,8.752E-05,0
HAWK-10A,2024-149CA,2024-10-09T04:49:57.690624,14.92697579,0.0003165,97.7496,357.8744,346.3747,13.7386,0,U,60540,999,795,8.3008E-04,8.514E-05,0
UMBRA-09,2024-149CB,2024-10-09T04:13:34.216608,14.94361304,0.0002828,97.7439,357.8468,342.5856,17.5266,0,U,60541,999,795,3.5523E-03,3.8352E-04,0
QPS-SAR-8 (AMATERU-IV),2024-149CC,2024-10-09T12:33:37.462464,14.93501477,0.0003497,97.7416,358.1539,348.8126,11.3015,0,U,60542,999,800,1.2893E-03,1.3536E-04,0
ARCTIC WEATHER SATELLITE,2024-149CD,2024-10-08T14:17:29.619744,14.92142698,0.000387,97.7436,357.2247,8.1673,351.9608,0,U,60543,999,786,8.1637E-04,8.256E-05,0
CAPELLA-15 (ACADIA-5),2024-149CE,2024-10-09T11:55:00.387264,14.95124001,0.0003709,97.7377,358.1610,328.0189,32.0806,0,U,60544,999,800,3.0842E-03,3.3922E-04,0
HAWK-10B,2024-149CF,2024-10-09T04:49:42.640608,14.92696126,0.0005444,97.7422,357.8106,359.5602,0.5612,0,U,60545,999,795,8.2393E-04,8.451E-05,0
ICEYE-X39,2024-149CG,2024-10-09T04:25:50.079360,14.93382463,0.0004689,97.7392,357.8042,349.2936,10.8183,0,U,60546,999,795,1.0479E-03,1.0955E-04,0
UMBRA-10,2024-149CH,2024-10-09T11:57:36.804096,14.94768099,0.0003708,97.7427,358.1884,344.9438,15.1672,0,U,60547,999,801,2.5513E-03,2.7774E-04,0
ICEYE-X33,2024-149CJ,2024-10-09T04:16:27.531552,14.93752481,0.0004723,97.7425,357.8354,356.4393,3.6793,0,U,60548,999,795,2.0289E-03,2.1496E-04,0
